[{"OBJECT_NAME":"STARLINK-35936","OBJECT_ID":"2025-271D","EPOCH":"2026-03-09T13:35:12.851808","MEAN_MOTION":15.30187874,"ECCENTRICITY":0.0001189,"INCLINATION":53.1578,"RA_OF_ASC_NODE":140.8022,"ARG_OF_PERICENTER":86.599,"MEAN_ANOMALY":273.5147,"EPHEMERIS_TYPE":0,"CLASSIFICATION_TYPE":"U","NORAD_CAT_ID":66620,"ELEMENT_SET_NO":999,"REV_AT_EPOCH":1754,"BSTAR":0.00086062,"MEAN_MOTION_DOT":0.00025207,"MEAN_MOTION_DDOT":0},{"OBJECT_NAME":"COSMOS 1328","OBJECT_ID":"1981-117A","EPOCH":"2026-03-09T17:51:53.113536","MEAN_MOTION":15.33902077,"ECCENTRICITY":0.00108717,"INCLINATION":82.4939,"RA_OF_ASC_NODE":350.453,"ARG_OF_PERICENTER":167.9725,"MEAN_ANOMALY":192.1779,"EPHEMERIS_TYPE":0,"CLASSIFICATION_TYPE":"U","NORAD_CAT_ID":12987,"ELEMENT_SET_NO":999,"REV_AT_EPOCH":41406,"BSTAR":0.00040501644,"MEAN_MOTION_DOT":0.00013342,"MEAN_MOTION_DDOT":0}]
